2022-023A               
1 51946U 22023A   26066.38437076  .00004303  00000+0  19500-3 0  9999
2 51946  63.4765 256.0240 0098533 341.4326  18.3199 15.18202647222269
STARLINK-34783          
1 66337U 25253U   26068.45496188  .00026008  00000+0  95156-3 0  9993
2 66337  43.0028 214.2599 0001325 266.6833  93.3867 15.27570908 20205
